{"type": "FeatureCollection", "features": [ {"type": "Feature", "properties": {"norad_id": 60453, "name": "LEGION 4", "group": "resource", "lat": -29.145914741056405, "lon": 9.379187589966824, "alt_km": 514.8522886842875, "timestamp": "2025-12-12T11:38:31.074175+00:00", "meta": {"OBJECT_NAME": "LEGION 4", "OBJECT_ID": "2024-146B", "EPOCH": "2025-12-12T03:55:28.604064", "MEAN_MOTION": 15.15814619, "ECCENTRICITY": 0.0009531, "INCLINATION": 45.0388, "RA_OF_ASC_NODE": 44.9704, "ARG_OF_PERICENTER": 308.059, "MEAN_ANOMALY": 51.9428, "EPHEMERIS_TYPE": 0, "CLASSIFICATION_TYPE": "U", "NORAD_CAT_ID": 60453, "ELEMENT_SET_NO": 999, "REV_AT_EPOCH": 7249, "BSTAR": 0.00042269, "MEAN_MOTION_DOT": 7.965e-05, "MEAN_MOTION_DDOT": 0}, "tle": {"line1": "1 60453U 24146B   25346.16352551  .00007965  00000+0  42269-3 0  9995", "line2": "2 60453  45.0388  44.9704 0009531 308.0590  51.9428 15.15814619 72491"}}, "geometry": {"type": "Point", "coordinates": [9.379187589966824, -29.145914741056405]}}, {"type": "Feature", "properties": {"norad_id": 60989, "name": "SENTINEL-2C", "group": "resource", "lat": 46.66803217393463, "lon": -111.8327629268973, "alt_km": 784.1747237109621, "timestamp": "2025-12-12T11:38:31.074185+00:00", "meta": {"OBJECT_NAME": "SENTINEL-2C", "OBJECT_ID": "2024-157A", "EPOCH": "2025-12-12T04:18:40.680864", "MEAN_MOTION": 14.30817207, "ECCENTRICITY": 0.0001199, "INCLINATION": 98.5683, "RA_OF_ASC_NODE": 58.6703, "ARG_OF_PERICENTER": 97.3608, "MEAN_ANOMALY": 262.7711, "EPHEMERIS_TYPE": 0, "CLASSIFICATION_TYPE": "U", "NORAD_CAT_ID": 60989, "ELEMENT_SET_NO": 999, "REV_AT_EPOCH": 6624, "BSTAR": 0.0001042, "MEAN_MOTION_DOT": 2.3e-06, "MEAN_MOTION_DDOT": 0}, "tle": {"line1": "1 60989U 24157A   25346.17963751  .00000230  00000+0  10420-3 0  9994", "line2": "2 60989  98.5683  58.6703 0001199  97.3608 262.7711 14.30817207 66242"}}, "geometry": {"type": "Point", "coordinates": [-111.8327629268973, 46.66803217393463]}}, {"type": "Feature", "properties": {"norad_id": 61735, "name": "IONOSFERA-M 1", "group": "resource", "lat": 45.58510658077112, "lon": -152.6986504777395, "alt_km": 811.5503276889103, "timestamp": "2025-12-12T11:38:31.074197+00:00", "meta": {"OBJECT_NAME": "IONOSFERA-M 1", "OBJECT_ID": "2024-199A", "EPOCH": "2025-12-12T04:40:25.523040", "MEAN_MOTION": 14.22713855, "ECCENTRICITY": 9.95e-05, "INCLINATION": 98.7404, "RA_OF_ASC_NODE": 216.0471, "ARG_OF_PERICENTER": 23.0252, "MEAN_ANOMALY": 337.0971, "EPHEMERIS_TYPE": 0, "CLASSIFICATION_TYPE": "U", "NORAD_CAT_ID": 61735, "ELEMENT_SET_NO": 999, "REV_AT_EPOCH": 10111, "BSTAR": 6.5418e-05, "MEAN_MOTION_DOT": 1.02e-06, "MEAN_MOTION_DDOT": 0}, "tle": {"line1": "1 61735U 24199A   25346.19473985  .00000102  00000+0  65418-4 0  9993", "line2": "2 61735  98.7404 216.0471 0000995  23.0252 337.0971 14.22713855101116"}}, "geometry": {"type": "Point", "coordinates": [-152.6986504777395, 45.58510658077112]}}, {"type": "Feature", "properties": {"norad_id": 61736, "name": "IONOSFERA-M 2", "group": "resource", "lat": -48.34565295693124, "lon": 26.28875443944455, "alt_km": 823.5418689989692, "timestamp": "2025-12-12T11:38:31.074221+00:00", "meta": {"OBJECT_NAME": "IONOSFERA-M 2", "OBJECT_ID": "2024-199B", "EPOCH": "2025-12-12T05:30:19.016928", "MEAN_MOTION": 14.22716057, "ECCENTRICITY": 0.000163, "INCLINATION": 98.7402, "RA_OF_ASC_NODE": 215.994, "ARG_OF_PERICENTER": 111.3931, "MEAN_ANOMALY": 248.7421, "EPHEMERIS_TYPE": 0, "CLASSIFICATION_TYPE": "U", "NORAD_CAT_ID": 61736, "ELEMENT_SET_NO": 999, "REV_AT_EPOCH": 10424, "BSTAR": 7.0301e-05, "MEAN_MOTION_DOT": 1.13e-06, "MEAN_MOTION_DDOT": 0}, "tle": {"line1": "1 61736U 24199B   25346.22938677  .00000113  00000+0  70301-4 0  9991", "line2": "2 61736  98.7402 215.9940 0001630 111.3931 248.7421 14.22716057104248"}}, "geometry": {"type": "Point", "coordinates": [26.28875443944455, -48.34565295693124]}}, {"type": "Feature", "properties": {"norad_id": 63772, "name": "BIOMASS", "group": "resource", "lat": 19.9145621616939, "lon": 168.5534375159728, "alt_km": 668.1611218070584, "timestamp": "2025-12-12T11:38:31.074232+00:00", "meta": {"OBJECT_NAME": "BIOMASS", "OBJECT_ID": "2025-090A", "EPOCH": "2025-12-12T01:43:56.440992", "MEAN_MOTION": 14.67539354, "ECCENTRICITY": 0.000203, "INCLINATION": 98.0685, "RA_OF_ASC_NODE": 171.0926, "ARG_OF_PERICENTER": 74.7557, "MEAN_ANOMALY": 285.3872, "EPHEMERIS_TYPE": 0, "CLASSIFICATION_TYPE": "U", "NORAD_CAT_ID": 63772, "ELEMENT_SET_NO": 999, "REV_AT_EPOCH": 3324, "BSTAR": 0.00036991, "MEAN_MOTION_DOT": 2.05e-05, "MEAN_MOTION_DDOT": 0}, "tle": {"line1": "1 63772U 25090A   25346.07218103  .00002050  00000+0  36991-3 0  9990", "line2": "2 63772  98.0685 171.0926 0002030  74.7557 285.3872 14.67539354 33243"}}, "geometry": {"type": "Point", "coordinates": [168.5534375159728, 19.9145621616939]}}, {"type": "Feature", "properties": {"norad_id": 64694, "name": "GOSAT-GW (IBUKI GW)", "group": "resource", "lat": -49.18918561974811, "lon": 92.57896308263672, "alt_km": 676.5507081739688, "timestamp": "2025-12-12T11:38:31.074242+00:00", "meta": {"OBJECT_NAME": "GOSAT-GW (IBUKI GW)", "OBJECT_ID": "2025-141A", "EPOCH": "2025-12-12T04:03:10.145088", "MEAN_MOTION": 14.67556132, "ECCENTRICITY": 0.0001418, "INCLINATION": 98.0423, "RA_OF_ASC_NODE": 281.6924, "ARG_OF_PERICENTER": 88.0571, "MEAN_ANOMALY": 272.0796, "EPHEMERIS_TYPE": 0, "CLASSIFICATION_TYPE": "U", "NORAD_CAT_ID": 64694, "ELEMENT_SET_NO": 999, "REV_AT_EPOCH": 2441, "BSTAR": 0.00024202, "MEAN_MOTION_DOT": 1.325e-05, "MEAN_MOTION_DDOT": 0}, "tle": {"line1": "1 64694U 25141A   25346.16886742  .00001325  00000+0  24202-3 0  9997", "line2": "2 64694  98.0423 281.6924 0001418  88.0571 272.0796 14.67556132 24416"}}, "geometry": {"type": "Point", "coordinates": [92.57896308263672, -49.18918561974811]}}, {"type": "Feature", "properties": {"norad_id": 64876, "name": "IONOSFERA-M 3", "group": "resource", "lat": -80.35710586533315, "lon": 11.027746817697231, "alt_km": 829.1481081716202, "timestamp": "2025-12-12T11:38:31.074253+00:00", "meta": {"OBJECT_NAME": "IONOSFERA-M 3", "OBJECT_ID": "2025-155A", "EPOCH": "2025-12-12T03:35:50.038944", "MEAN_MOTION": 14.21440793, "ECCENTRICITY": 0.0002245, "INCLINATION": 98.5781, "RA_OF_ASC_NODE": 308.0327, "ARG_OF_PERICENTER": 60.9649, "MEAN_ANOMALY": 299.1753, "EPHEMERIS_TYPE": 0, "CLASSIFICATION_TYPE": "U", "NORAD_CAT_ID": 64876, "ELEMENT_SET_NO": 999, "REV_AT_EPOCH": 1983, "BSTAR": 9.0668e-05, "MEAN_MOTION_DOT": 1.56e-06, "MEAN_MOTION_DDOT": 0}, "tle": {"line1": "1 64876U 25155A   25346.14988471  .00000156  00000+0  90668-4 0  9995", "line2": "2 64876  98.5781 308.0327 0002245  60.9649 299.1753 14.21440793 19833"}}, "geometry": {"type": "Point", "coordinates": [11.027746817697231, -80.35710586533315]}}, {"type": "Feature", "properties": {"norad_id": 64877, "name": "IONOSFERA-M 4", "group": "resource", "lat": 80.02067401828891, "lon": -172.64727222677695, "alt_km": 812.0944071594804, "timestamp": "2025-12-12T11:38:31.074263+00:00", "meta": {"OBJECT_NAME": "IONOSFERA-M 4", "OBJECT_ID": "2025-155B", "EPOCH": "2025-12-12T04:26:19.783680", "MEAN_MOTION": 14.21441913, "ECCENTRICITY": 0.0001596, "INCLINATION": 98.5781, "RA_OF_ASC_NODE": 307.9863, "ARG_OF_PERICENTER": 64.0586, "MEAN_ANOMALY": 296.0756, "EPHEMERIS_TYPE": 0, "CLASSIFICATION_TYPE": "U", "NORAD_CAT_ID": 64877, "ELEMENT_SET_NO": 999, "REV_AT_EPOCH": 1983, "BSTAR": 8.9169e-05, "MEAN_MOTION_DOT": 1.52e-06, "MEAN_MOTION_DDOT": 0}, "tle": {"line1": "1 64877U 25155B   25346.18495120  .00000152  00000+0  89169-4 0  9994", "line2": "2 64877  98.5781 307.9863 0001596  64.0586 296.0756 14.21441913 19834"}}, "geometry": {"type": "Point", "coordinates": [-172.64727222677695, 80.02067401828891]}}, {"type": "Feature", "properties": {"norad_id": 64899, "name": "MICROCARB", "group": "resource", "lat": -23.369320115191258, "lon": -121.6504430903971, "alt_km": 653.6090220037077, "timestamp": "2025-12-12T11:38:31.074273+00:00", "meta": {"OBJECT_NAME": "MICROCARB", "OBJECT_ID": "2025-156A", "EPOCH": "2025-12-12T04:11:46.216608", "MEAN_MOTION": 14.7205564, "ECCENTRICITY": 0.0017105, "INCLINATION": 98.0026, "RA_OF_ASC_NODE": 61.5294, "ARG_OF_PERICENTER": 146.4613, "MEAN_ANOMALY": 213.7681, "EPHEMERIS_TYPE": 0, "CLASSIFICATION_TYPE": "U", "NORAD_CAT_ID": 64899, "ELEMENT_SET_NO": 999, "REV_AT_EPOCH": 2045, "BSTAR": 0.00019044, "MEAN_MOTION_DOT": 1.15e-05, "MEAN_MOTION_DDOT": 0}, "tle": {"line1": "1 64899U 25156A   25346.17484047  .00001150  00000+0  19044-3 0  9997", "line2": "2 64899  98.0026  61.5294 0017105 146.4613 213.7681 14.72055640 20452"}}, "geometry": {"type": "Point", "coordinates": [-121.6504430903971, -23.369320115191258]}}, {"type": "Feature", "properties": {"norad_id": 64900, "name": "CO3D 3", "group": "resource", "lat": -20.745554064553026, "lon": -119.97997487114074, "alt_km": 507.03778009711095, "timestamp": "2025-12-12T11:38:31.074285+00:00", "meta": {"OBJECT_NAME": "CO3D 3", "OBJECT_ID": "2025-156B", "EPOCH": "2025-12-12T04:26:31.993728", "MEAN_MOTION": 15.20160723, "ECCENTRICITY": 0.0005472, "INCLINATION": 97.4437, "RA_OF_ASC_NODE": 62.5626, "ARG_OF_PERICENTER": 185.32, "MEAN_ANOMALY": 174.7978, "EPHEMERIS_TYPE": 0, "CLASSIFICATION_TYPE": "U", "NORAD_CAT_ID": 64900, "ELEMENT_SET_NO": 999, "REV_AT_EPOCH": 2112, "BSTAR": 0.001105, "MEAN_MOTION_DOT": 0.0002391, "MEAN_MOTION_DDOT": 0}, "tle": {"line1": "1 64900U 25156B   25346.18509252  .00023910  00000+0  11050-2 0  9993", "line2": "2 64900  97.4437  62.5626 0005472 185.3200 174.7978 15.20160723 21125"}}, "geometry": {"type": "Point", "coordinates": [-119.97997487114074, -20.745554064553026]}}]}